{
  "type": "FeatureCollection",
  "features": [
    {
      "type": "Feature",
      "properties": {
        "norad_id": 35052,
        "name": "IRIDIUM 33 DEB",
        "group": "iridium-33-debris",
        "lat": -64.4100709036195,
        "lon": 8.970058985404433,
        "alt_km": 776.1672869903177,
        "timestamp": "2025-12-21T14:40:48.303749+00:00",
        "meta_object_name": "IRIDIUM 33 DEB",
        "meta_object_id": "1997-051NY",
        "meta_epoch": "2025-12-20T18:56:48.199200",
        "meta_mean_motion": 14.3850059,
        "meta_eccentricity": 0.00133727,
        "meta_inclination": 86.33,
        "meta_ra_of_asc_node": 17.0245,
        "meta_arg_of_pericenter": 62.6597,
        "meta_mean_anomaly": 297.5961,
        "meta_ephemeris_type": 0,
        "meta_classification_type": "U",
        "meta_norad_cat_id": 35052,
        "meta_element_set_no": 999,
        "meta_rev_at_epoch": 87391,
        "meta_bstar": 0.00012651118,
        "meta_mean_motion_dot": 4.07e-06,
        "meta_mean_motion_ddot": 0,
        "tle_line1": "1 35052U 97051NY  25354.78944675  .00000407  00000+0  12651-3 0  9994",
        "tle_line2": "2 35052  86.3300  17.0245 0013372  62.6597 297.5961 14.38500590873919"
      },
      "geometry": {
        "type": "Point",
        "coordinates": [
          8.970058985404433,
          -64.4100709036195
        ]
      }
    },
    {
      "type": "Feature",
      "properties": {
        "norad_id": 35080,
        "name": "IRIDIUM 33 DEB",
        "group": "iridium-33-debris",
        "lat": -24.283673392786152,
        "lon": -130.15115598318084,
        "alt_km": 589.4539178029936,
        "timestamp": "2025-12-21T14:40:48.303766+00:00",
        "meta_object_name": "IRIDIUM 33 DEB",
        "meta_object_id": "1997-051PF",
        "meta_epoch": "2025-12-20T15:09:22.011264",
        "meta_mean_motion": 14.86879121,
        "meta_eccentricity": 0.005897,
        "meta_inclination": 86.2079,
        "meta_ra_of_asc_node": 48.603,
        "meta_arg_of_pericenter": 152.5629,
        "meta_mean_anomaly": 207.8731,
        "meta_ephemeris_type": 0,
        "meta_classification_type": "U",
        "meta_norad_cat_id": 35080,
        "meta_element_set_no": 999,
        "meta_rev_at_epoch": 69805,
        "meta_bstar": 0.0035206,
        "meta_mean_motion_dot": 0.00032575,
        "meta_mean_motion_ddot": 0,
        "tle_line1": "1 35080U 97051PF  25354.63150476  .00032575  00000+0  35206-2 0  9998",
        "tle_line2": "2 35080  86.2079  48.6030 0058970 152.5629 207.8731 14.86879121698053"
      },
      "geometry": {
        "type": "Point",
        "coordinates": [
          -130.15115598318084,
          -24.283673392786152
        ]
      }
    },
    {
      "type": "Feature",
      "properties": {
        "norad_id": 35297,
        "name": "IRIDIUM 33 DEB",
        "group": "iridium-33-debris",
        "lat": 55.06841627776517,
        "lon": 64.16475835859288,
        "alt_km": 729.4779805560665,
        "timestamp": "2025-12-21T14:40:48.303784+00:00",
        "meta_object_name": "IRIDIUM 33 DEB",
        "meta_object_id": "1997-051PM",
        "meta_epoch": "2025-12-20T11:50:15.220608",
        "meta_mean_motion": 14.451882,
        "meta_eccentricity": 0.00180204,
        "meta_inclination": 86.386,
        "meta_ra_of_asc_node": 59.4502,
        "meta_arg_of_pericenter": 117.2164,
        "meta_mean_anomaly": 243.0877,
        "meta_ephemeris_type": 0,
        "meta_classification_type": "U",
        "meta_norad_cat_id": 35297,
        "meta_element_set_no": 999,
        "meta_rev_at_epoch": 70538,
        "meta_bstar": 0.00041153613,
        "meta_mean_motion_dot": 1.463e-05,
        "meta_mean_motion_ddot": 0,
        "tle_line1": "1 35297U 97051PM  25354.49323172  .00001463  00000+0  41154-3 0  9999",
        "tle_line2": "2 35297  86.3860  59.4502 0018020 117.2164 243.0877 14.45188200705384"
      },
      "geometry": {
        "type": "Point",
        "coordinates": [
          64.16475835859288,
          55.06841627776517
        ]
      }
    },
    {
      "type": "Feature",
      "properties": {
        "norad_id": 35299,
        "name": "IRIDIUM 33 DEB",
        "group": "iridium-33-debris",
        "lat": -31.86971247481316,
        "lon": -148.36272395646003,
        "alt_km": 792.6253002009407,
        "timestamp": "2025-12-21T14:40:48.303801+00:00",
        "meta_object_name": "IRIDIUM 33 DEB",
        "meta_object_id": "1997-051PP",
        "meta_epoch": "2025-12-20T13:24:11.661120",
        "meta_mean_motion": 14.40896133,
        "meta_eccentricity": 0.0058811,
        "meta_inclination": 86.2869,
        "meta_ra_of_asc_node": 29.782,
        "meta_arg_of_pericenter": 77.5607,
        "meta_mean_anomaly": 74.0895,
        "meta_ephemeris_type": 0,
        "meta_classification_type": "U",
        "meta_norad_cat_id": 35299,
        "meta_element_set_no": 999,
        "meta_rev_at_epoch": 86443,
        "meta_bstar": 0.00051106,
        "meta_mean_motion_dot": 1.693e-05,
        "meta_mean_motion_ddot": 0,
        "tle_line1": "1 35299U 97051PP  25354.55846830  .00001693  00000+0  51106-3 0  9992",
        "tle_line2": "2 35299  86.2869  29.7820 0058811  77.5607  74.0895 14.40896133864439"
      },
      "geometry": {
        "type": "Point",
        "coordinates": [
          -148.36272395646003,
          -31.86971247481316
        ]
      }
    },
    {
      "type": "Feature",
      "properties": {
        "norad_id": 35480,
        "name": "IRIDIUM 33 DEB",
        "group": "iridium-33-debris",
        "lat": -55.237107348653545,
        "lon": -153.66601028871597,
        "alt_km": 744.072727823569,
        "timestamp": "2025-12-21T14:40:48.303812+00:00",
        "meta_object_name": "IRIDIUM 33 DEB",
        "meta_object_id": "1997-051QA",
        "meta_epoch": "2025-12-15T08:30:57.118464",
        "meta_mean_motion": 14.49774703,
        "meta_eccentricity": 0.00160032,
        "meta_inclination": 86.3571,
        "meta_ra_of_asc_node": 23.7786,
        "meta_arg_of_pericenter": 97.0457,
        "meta_mean_anomaly": 263.2568,
        "meta_ephemeris_type": 0,
        "meta_classification_type": "U",
        "meta_norad_cat_id": 35480,
        "meta_element_set_no": 999,
        "meta_rev_at_epoch": 87069,
        "meta_bstar": 0.00045738518,
        "meta_mean_motion_dot": 1.785e-05,
        "meta_mean_motion_ddot": 0,
        "tle_line1": "1 35480U 97051QA  25349.35482776  .00001785  00000+0  45739-3 0  9998",
        "tle_line2": "2 35480  86.3571  23.7786 0016003  97.0457 263.2568 14.49774703870695"
      },
      "geometry": {
        "type": "Point",
        "coordinates": [
          -153.66601028871597,
          -55.237107348653545
        ]
      }
    },
    {
      "type": "Feature",
      "properties": {
        "norad_id": 35484,
        "name": "IRIDIUM 33 DEB",
        "group": "iridium-33-debris",
        "lat": 12.453806686636343,
        "lon": 167.78743683103733,
        "alt_km": 565.3881702310409,
        "timestamp": "2025-12-21T14:40:48.303823+00:00",
        "meta_object_name": "IRIDIUM 33 DEB",
        "meta_object_id": "1997-051QE",
        "meta_epoch": "2025-12-20T05:53:50.544096",
        "meta_mean_motion": 14.99070362,
        "meta_eccentricity": 0.0024356,
        "meta_inclination": 86.3597,
        "meta_ra_of_asc_node": 349.2325,
        "meta_arg_of_pericenter": 101.4609,
        "meta_mean_anomaly": 258.9359,
        "meta_ephemeris_type": 0,
        "meta_classification_type": "U",
        "meta_norad_cat_id": 35484,
        "meta_element_set_no": 999,
        "meta_rev_at_epoch": 62128,
        "meta_bstar": 0.0017572,
        "meta_mean_motion_dot": 0.00021521,
        "meta_mean_motion_ddot": 0,
        "tle_line1": "1 35484U 97051QE  25354.24572389  .00021521  00000+0  17572-2 0  9999",
        "tle_line2": "2 35484  86.3597 349.2325 0024356 101.4609 258.9359 14.99070362621284"
      },
      "geometry": {
        "type": "Point",
        "coordinates": [
          167.78743683103733,
          12.453806686636343
        ]
      }
    },
    {
      "type": "Feature",
      "properties": {
        "norad_id": 35488,
        "name": "IRIDIUM 33 DEB",
        "group": "iridium-33-debris",
        "lat": 45.05914280749825,
        "lon": 113.09379370395456,
        "alt_km": 625.9232628457275,
        "timestamp": "2025-12-21T14:40:48.303833+00:00",
        "meta_object_name": "IRIDIUM 33 DEB",
        "meta_object_id": "1997-051QJ",
        "meta_epoch": "2025-12-18T06:44:16.731744",
        "meta_mean_motion": 14.83196659,
        "meta_eccentricity": 0.00291507,
        "meta_inclination": 86.3243,
        "meta_ra_of_asc_node": 298.3231,
        "meta_arg_of_pericenter": 24.8223,
        "meta_mean_anomaly": 335.4395,
        "meta_ephemeris_type": 0,
        "meta_classification_type": "U",
        "meta_norad_cat_id": 35488,
        "meta_element_set_no": 999,
        "meta_rev_at_epoch": 88348,
        "meta_bstar": 0.0014098178,
        "meta_mean_motion_dot": 0.00011627,
        "meta_mean_motion_ddot": 0,
        "tle_line1": "1 35488U 97051QJ  25352.28074921  .00011627  00000+0  14098-2 0  9990",
        "tle_line2": "2 35488  86.3243 298.3231 0029150  24.8223 335.4395 14.83196659883487"
      },
      "geometry": {
        "type": "Point",
        "coordinates": [
          113.09379370395456,
          45.05914280749825
        ]
      }
    }
  ]
}